start=new Date('2021-10-09T00:00:00.000Z').valueOf();
sats=[{"TLE_LINE2":"2 48295  53.0568 121.8986 0001905  83.6529 276.4677 15.06398703 25222","SITE":"AFETR","TLE_LINE1":"1 48295U 21036V   21281.86002357  .00001289  00000-0  10545-3 0  9993","RCS_SIZE":"LARGE","PERIAPSIS":"545.898","SEMIMAJOR_AXIS":"6925.353","FILE":"3152020","MEAN_ELEMENT_THEORY":"SGP4","GP_ID":"186596305","INCLINATION":"53.0568","DECAY_DATE":null,"EPOCH":"2021-10-08T20:38:26.036448","REV_AT_EPOCH":"2522","MEAN_MOTION_DDOT":"0.0000000000000","LAUNCH_DATE":"2021-04-29","COUNTRY_CODE":"US","RA_OF_ASC_NODE":"121.8986","MEAN_MOTION":"15.06398703","OBJECT_TYPE":"PAYLOAD","CLASSIFICATION_TYPE":"U","ECCENTRICITY":"0.00019050","BSTAR":"0.00010545000000","OBJECT_ID":"2021-036V","APOAPSIS":"548.537","OBJECT_NAME":"STARLINK-2535","NORAD_CAT_ID":"48295","REF_FRAME":"TEME","MEAN_MOTION_DOT":"0.00001289","ARG_OF_PERICENTER":"83.6529","PERIOD":"95.592","CENTER_NAME":"EARTH","EPHEMERIS_TYPE":"0","TIME_SYSTEM":"UTC","ELEMENT_SET_NO":"999","MEAN_ANOMALY":"276.4677"},{"RA_OF_ASC_NODE":"121.9127","MEAN_MOTION":"15.06400311","COUNTRY_CODE":"US","OBJECT_TYPE":"PAYLOAD","DECAY_DATE":null,"EPOCH":"2021-10-08T20:33:07.800192","GP_ID":"186596552","INCLINATION":"53.0557","LAUNCH_DATE":"2021-04-29","REV_AT_EPOCH":"2522","MEAN_MOTION_DDOT":"0.0000000000000","SEMIMAJOR_AXIS":"6925.348","MEAN_ELEMENT_THEORY":"SGP4","FILE":"3152020","TLE_LINE1":"1 48296U 21036W   21281.85634028  .00000938  00000-0  81883-4 0  9993","RCS_SIZE":"LARGE","PERIAPSIS":"545.992","SITE":"AFETR","TLE_LINE2":"2 48296  53.0557 121.9127 0001762  86.0574 274.0616 15.06400311 25223","TIME_SYSTEM":"UTC","ELEMENT_SET_NO":"999","MEAN_ANOMALY":"274.0616","CENTER_NAME":"EARTH","EPHEMERIS_TYPE":"0","REF_FRAME":"TEME","NORAD_CAT_ID":"48296","APOAPSIS":"548.433","OBJECT_NAME":"STARLINK-2546","PERIOD":"95.592","ARG_OF_PERICENTER":"86.0574","MEAN_MOTION_DOT":"0.00000938","CLASSIFICATION_TYPE":"U","OBJECT_ID":"2021-036W","ECCENTRICITY":"0.00017620","BSTAR":"0.00008188300000"},{"MEAN_ANOMALY":"281.1812","TIME_SYSTEM":"UTC","ELEMENT_SET_NO":"999","CENTER_NAME":"EARTH","EPHEMERIS_TYPE":"0","MEAN_MOTION_DOT":"0.00001181","ARG_OF_PERICENTER":"78.9380","PERIOD":"95.592","APOAPSIS":"548.462","OBJECT_NAME":"STARLINK-2544","NORAD_CAT_ID":"48297","REF_FRAME":"TEME","ECCENTRICITY":"0.00018070","BSTAR":"0.00009815900000","OBJECT_ID":"2021-036X","CLASSIFICATION_TYPE":"U","OBJECT_TYPE":"PAYLOAD","COUNTRY_CODE":"US","RA_OF_ASC_NODE":"121.9306","MEAN_MOTION":"15.06401066","REV_AT_EPOCH":"2522","MEAN_MOTION_DDOT":"0.0000000000000","LAUNCH_DATE":"2021-04-29","GP_ID":"186595304","INCLINATION":"53.0550","DECAY_DATE":null,"EPOCH":"2021-10-08T20:27:49.129344","FILE":"3152020","MEAN_ELEMENT_THEORY":"SGP4","SEMIMAJOR_AXIS":"6925.345","TLE_LINE2":"2 48297  53.0550 121.9306 0001807  78.9380 281.1812 15.06401066 25226","SITE":"AFETR","TLE_LINE1":"1 48297U 21036X   21281.85265196  .00001181  00000-0  98159-4 0  9995","PERIAPSIS":"545.959","RCS_SIZE":"LARGE"},{"FILE":"3152020","MEAN_ELEMENT_THEORY":"SGP4","SEMIMAJOR_AXIS":"6925.339","TLE_LINE2":"2 48298  53.0560 121.9453 0001569  86.6003 273.5165 15.06403000 25220","SITE":"AFETR","RCS_SIZE":"LARGE","PERIAPSIS":"546.118","TLE_LINE1":"1 48298U 21036Y   21281.84896107  .00000934  00000-0  81562-4 0  9992","OBJECT_TYPE":"PAYLOAD","COUNTRY_CODE":"US","RA_OF_ASC_NODE":"121.9453","MEAN_MOTION":"15.06403000","MEAN_MOTION_DDOT":"0.0000000000000","REV_AT_EPOCH":"2522","LAUNCH_DATE":"2021-04-29","INCLINATION":"53.0560","GP_ID":"186595554","EPOCH":"2021-10-08T20:22:30.236448","DECAY_DATE":null,"MEAN_MOTION_DOT":"0.00000934","PERIOD":"95.592","ARG_OF_PERICENTER":"86.6003","OBJECT_NAME":"STARLINK-2559","APOAPSIS":"548.291","REF_FRAME":"TEME","NORAD_CAT_ID":"48298","BSTAR":"0.00008156200000","ECCENTRICITY":"0.00015690","OBJECT_ID":"2021-036Y","CLASSIFICATION_TYPE":"U","MEAN_ANOMALY":"273.5165","ELEMENT_SET_NO":"999","TIME_SYSTEM":"UTC","EPHEMERIS_TYPE":"0","CENTER_NAME":"EARTH"},{"ECCENTRICITY":"0.00020280","BSTAR":"0.00000731710000","OBJECT_ID":"2021-036Z","CLASSIFICATION_TYPE":"U","MEAN_MOTION_DOT":"-0.00000173","ARG_OF_PERICENTER":"90.4507","PERIOD":"95.592","APOAPSIS":"548.622","OBJECT_NAME":"STARLINK-2557","REF_FRAME":"TEME","NORAD_CAT_ID":"48299","CENTER_NAME":"EARTH","EPHEMERIS_TYPE":"0","MEAN_ANOMALY":"269.6714","TIME_SYSTEM":"UTC","ELEMENT_SET_NO":"999","SITE":"AFETR","TLE_LINE2":"2 48299  53.0562 121.9434 0002028  90.4507 269.6714 15.06398582 25229","TLE_LINE1":"1 48299U 21036Z   21281.84527249 -.00000173  00000-0  73171-5 0  9995","RCS_SIZE":"LARGE","PERIAPSIS":"545.813","FILE":"3152020","MEAN_ELEMENT_THEORY":"SGP4","SEMIMAJOR_AXIS":"6925.353","REV_AT_EPOCH":"2522","MEAN_MOTION_DDOT":"0.0000000000000","LAUNCH_DATE":"2021-04-29","GP_ID":"186596806","INCLINATION":"53.0562","DECAY_DATE":null,"EPOCH":"2021-10-08T20:17:11.543136","OBJECT_TYPE":"PAYLOAD","COUNTRY_CODE":"US","RA_OF_ASC_NODE":"121.9434","MEAN_MOTION":"15.06398582"},{"TIME_SYSTEM":"UTC","ELEMENT_SET_NO":"999","MEAN_ANOMALY":"265.7426","CENTER_NAME":"EARTH","EPHEMERIS_TYPE":"0","REF_FRAME":"TEME","NORAD_CAT_ID":"48300","APOAPSIS":"548.644","OBJECT_NAME":"STARLINK-2538","ARG_OF_PERICENTER":"94.3798","PERIOD":"95.592","MEAN_MOTION_DOT":"0.00000044","CLASSIFICATION_TYPE":"U","OBJECT_ID":"2021-036AA","ECCENTRICITY":"0.00020610","BSTAR":"0.00002186400000","MEAN_MOTION":"15.06399043","RA_OF_ASC_NODE":"131.9866","COUNTRY_CODE":"US","OBJECT_TYPE":"PAYLOAD","DECAY_DATE":null,"EPOCH":"2021-10-08T20:05:15.724320","GP_ID":"186597053","INCLINATION":"53.0604","LAUNCH_DATE":"2021-04-29","REV_AT_EPOCH":"2508","MEAN_MOTION_DDOT":"0.0000000000000","SEMIMAJOR_AXIS":"6925.351","MEAN_ELEMENT_THEORY":"SGP4","FILE":"3152020","TLE_LINE1":"1 48300U 21036AA  21281.83698755  .00000044  00000-0  21864-4 0  9995","RCS_SIZE":"LARGE","PERIAPSIS":"545.789","SITE":"AFETR","TLE_LINE2":"2 48300  53.0604 131.9866 0002061  94.3798 265.7426 15.06399043 25085"},{"CLASSIFICATION_TYPE":"U","ECCENTRICITY":"0.00018440","BSTAR":"0.00010854000000","OBJECT_ID":"2021-036AB","APOAPSIS":"548.490","OBJECT_NAME":"STARLINK-2537","NORAD_CAT_ID":"48301","REF_FRAME":"TEME","MEAN_MOTION_DOT":"0.00001335","PERIOD":"95.592","ARG_OF_PERICENTER":"83.0635","CENTER_NAME":"EARTH","EPHEMERIS_TYPE":"0","TIME_SYSTEM":"UTC","ELEMENT_SET_NO":"999","MEAN_ANOMALY":"277.0563","TLE_LINE2":"2 48301  53.0527 132.0070 0001844  83.0635 277.0563 15.06400139 25078","SITE":"AFETR","TLE_LINE1":"1 48301U 21036AB  21281.83328030  .00001335  00000-0  10854-3 0  9992","RCS_SIZE":"LARGE","PERIAPSIS":"545.936","SEMIMAJOR_AXIS":"6925.348","FILE":"3152020","MEAN_ELEMENT_THEORY":"SGP4","GP_ID":"186595805","INCLINATION":"53.0527","DECAY_DATE":null,"EPOCH":"2021-10-08T19:59:55.417920","REV_AT_EPOCH":"2507","MEAN_MOTION_DDOT":"0.0000000000000","LAUNCH_DATE":"2021-04-29","COUNTRY_CODE":"US","RA_OF_ASC_NODE":"132.0070","MEAN_MOTION":"15.06400139","OBJECT_TYPE":"PAYLOAD"},{"OBJECT_ID":"2021-036AC","ECCENTRICITY":"0.00016780","BSTAR":"-0.00036294000000","CLASSIFICATION_TYPE":"U","PERIOD":"95.593","ARG_OF_PERICENTER":"64.4899","MEAN_MOTION_DOT":"-0.00005681","REF_FRAME":"TEME","NORAD_CAT_ID":"48302","APOAPSIS":"548.418","OBJECT_NAME":"STARLINK-2556","CENTER_NAME":"EARTH","EPHEMERIS_TYPE":"0","MEAN_ANOMALY":"295.6264","TIME_SYSTEM":"UTC","ELEMENT_SET_NO":"999","TLE_LINE1":"1 48302U 21036AC  21281.82959493 -.00005681  00000-0 -36294-3 0  9991","PERIAPSIS":"546.094","RCS_SIZE":"LARGE","SITE":"AFETR","TLE_LINE2":"2 48302  53.0534 132.0169 0001678  64.4899 295.6264 15.06386257 25074","FILE":"3152020","MEAN_ELEMENT_THEORY":"SGP4","SEMIMAJOR_AXIS":"6925.391","LAUNCH_DATE":"2021-04-29","REV_AT_EPOCH":"2507","MEAN_MOTION_DDOT":"0.0000000000000","DECAY_DATE":null,"EPOCH":"2021-10-08T19:54:37.001952","GP_ID":"186596055","INCLINATION":"53.0534","OBJECT_TYPE":"PAYLOAD","MEAN_MOTION":"15.06386257","RA_OF_ASC_NODE":"132.0169","COUNTRY_CODE":"US"},{"CENTER_NAME":"EARTH","EPHEMERIS_TYPE":"0","TIME_SYSTEM":"UTC","ELEMENT_SET_NO":"999","MEAN_ANOMALY":"283.4840","CLASSIFICATION_TYPE":"U","ECCENTRICITY":"0.00020280","BSTAR":"-0.00004322100000","OBJECT_ID":"2021-036AD","APOAPSIS":"548.614","OBJECT_NAME":"STARLINK-2530","NORAD_CAT_ID":"48303","REF_FRAME":"TEME","MEAN_MOTION_DOT":"-0.00000925","ARG_OF_PERICENTER":"76.6375","PERIOD":"95.592","GP_ID":"186596306","INCLINATION":"53.0532","DECAY_DATE":null,"EPOCH":"2021-10-08T21:24:51.448032","REV_AT_EPOCH":"2508","MEAN_MOTION_DDOT":"0.0000000000000","LAUNCH_DATE":"2021-04-29","COUNTRY_CODE":"US","RA_OF_ASC_NODE":"131.7376","MEAN_MOTION":"15.06401242","OBJECT_TYPE":"PAYLOAD","SITE":"AFETR","TLE_LINE2":"2 48303  53.0532 131.7376 0002028  76.6375 283.4840 15.06401242 25081","TLE_LINE1":"1 48303U 21036AD  21281.89226213 -.00000925  00000-0 -43221-4 0  9991","PERIAPSIS":"545.805","RCS_SIZE":"LARGE","SEMIMAJOR_AXIS":"6925.345","MEAN_ELEMENT_THEORY":"SGP4","FILE":"3152020"},{"TLE_LINE2":"2 48304  53.0550 131.7578 0002123  77.9965 282.1262 15.06395630 25088","SITE":"AFETR","TLE_LINE1":"1 48304U 21036AE  21281.88857227 -.00000447  00000-0 -11087-4 0  9990","RCS_SIZE":"LARGE","PERIAPSIS":"545.757","SEMIMAJOR_AXIS":"6925.362","MEAN_ELEMENT_THEORY":"SGP4","FILE":"3152020","GP_ID":"186596553","INCLINATION":"53.0550","DECAY_DATE":null,"EPOCH":"2021-10-08T21:19:32.644128","REV_AT_EPOCH":"2508","MEAN_MOTION_DDOT":"0.0000000000000","LAUNCH_DATE":"2021-04-29","COUNTRY_CODE":"US","MEAN_MOTION":"15.06395630","RA_OF_ASC_NODE":"131.7578","OBJECT_TYPE":"PAYLOAD","CLASSIFICATION_TYPE":"U","ECCENTRICITY":"0.00021230","BSTAR":"-0.00001108700000","OBJECT_ID":"2021-036AE","APOAPSIS":"548.697","OBJECT_NAME":"STARLINK-2524","NORAD_CAT_ID":"48304","REF_FRAME":"TEME","MEAN_MOTION_DOT":"-0.00000447","ARG_OF_PERICENTER":"77.9965","PERIOD":"95.592","CENTER_NAME":"EARTH","EPHEMERIS_TYPE":"0","TIME_SYSTEM":"UTC","ELEMENT_SET_NO":"999","MEAN_ANOMALY":"282.1262"}];
